{"fetched_at":"2026-07-23T07:05:56.334Z","source":"https://celestrak.org/NORAD/elements/gp.php?NAME=PLEIADES&FORMAT=JSON","constellation":"pleiades","records":[{"OBJECT_NAME":"PLEIADES 1A","OBJECT_ID":"2011-076F","EPOCH":"2026-07-22T22:39:30.273696","CLASSIFICATION_TYPE":"U","MEAN_MOTION":14.58548947,"ECCENTRICITY":0.00015926,"INCLINATION":98.1961,"RA_OF_ASC_NODE":278.5639,"ARG_OF_PERICENTER":76.9717,"MEAN_ANOMALY":27.5198,"EPHEMERIS_TYPE":0,"NORAD_CAT_ID":38012,"ELEMENT_SET_NO":999,"REV_AT_EPOCH":77720,"BSTAR":0.000015769331,"MEAN_MOTION_DOT":2.8e-7,"MEAN_MOTION_DDOT":0},{"OBJECT_NAME":"PLEIADES 1B","OBJECT_ID":"2012-068A","EPOCH":"2026-07-22T22:59:52.672128","CLASSIFICATION_TYPE":"U","MEAN_MOTION":14.58536518,"ECCENTRICITY":0.00014656,"INCLINATION":98.193,"RA_OF_ASC_NODE":278.5144,"ARG_OF_PERICENTER":77.4982,"MEAN_ANOMALY":282.6382,"EPHEMERIS_TYPE":0,"NORAD_CAT_ID":39019,"ELEMENT_SET_NO":999,"REV_AT_EPOCH":72606,"BSTAR":0.000022137708,"MEAN_MOTION_DOT":5.7e-7,"MEAN_MOTION_DDOT":0}]}
